[{"OBJECT_NAME":"STARLINK-33913","OBJECT_ID":"2025-176T","EPOCH":"2026-03-09T11:23:16.276416","MEAN_MOTION":15.30178168,"ECCENTRICITY":0.00011604,"INCLINATION":53.1584,"RA_OF_ASC_NODE":156.1278,"ARG_OF_PERICENTER":63.2631,"MEAN_ANOMALY":296.8489,"EPHEMERIS_TYPE":0,"CLASSIFICATION_TYPE":"U","NORAD_CAT_ID":65215,"ELEMENT_SET_NO":999,"REV_AT_EPOCH":3305,"BSTAR":0.000851099,"MEAN_MOTION_DOT":0.00024915,"MEAN_MOTION_DDOT":0},{"OBJECT_NAME":"COSMOS 1975","OBJECT_ID":"1988-093A","EPOCH":"2026-03-09T14:15:08.474112","MEAN_MOTION":15.28069249,"ECCENTRICITY":0.0012117,"INCLINATION":82.5181,"RA_OF_ASC_NODE":117.7814,"ARG_OF_PERICENTER":163.8427,"MEAN_ANOMALY":196.3201,"EPHEMERIS_TYPE":0,"CLASSIFICATION_TYPE":"U","NORAD_CAT_ID":19573,"ELEMENT_SET_NO":999,"REV_AT_EPOCH":1939,"BSTAR":0.0002787,"MEAN_MOTION_DOT":7.676e-5,"MEAN_MOTION_DDOT":0}]
